{
  "type": "FeatureCollection",
  "features": [
    {
      "type": "Feature",
      "properties": {
        "norad_id": 31047,
        "name": "FENGYUN 1C DEB",
        "group": "fengyun-1c-debris",
        "lat": -58.888695523095286,
        "lon": 10.751703680167148,
        "alt_km": 870.6091674631862,
        "timestamp": "2025-12-24T22:42:22.311615+00:00",
        "meta_object_name": "FENGYUN 1C DEB",
        "meta_object_id": "1999-025BER",
        "meta_epoch": "2025-12-22T12:16:57.847296",
        "meta_mean_motion": 14.13857139,
        "meta_eccentricity": 0.00261016,
        "meta_inclination": 98.7012,
        "meta_ra_of_asc_node": 353.6831,
        "meta_arg_of_pericenter": 150.1278,
        "meta_mean_anomaly": 6.368,
        "meta_ephemeris_type": 0,
        "meta_classification_type": "U",
        "meta_norad_cat_id": 31047,
        "meta_element_set_no": 999,
        "meta_rev_at_epoch": 96497,
        "meta_bstar": 0.00037194236,
        "meta_mean_motion_dot": 6.64e-06,
        "meta_mean_motion_ddot": 0,
        "tle_line1": "1 31047U 99025BER 25356.51178064  .00000664  00000+0  37194-3 0  9995",
        "tle_line2": "2 31047  98.7012 353.6831 0026101 150.1278   6.3680 14.13857139964977"
      },
      "geometry": {
        "type": "Point",
        "coordinates": [
          10.751703680167148,
          -58.888695523095286
        ]
      }
    },
    {
      "type": "Feature",
      "properties": {
        "norad_id": 31051,
        "name": "FENGYUN 1C DEB",
        "group": "fengyun-1c-debris",
        "lat": -70.92231608586,
        "lon": 55.79015203405108,
        "alt_km": 929.1760458472045,
        "timestamp": "2025-12-24T22:42:22.311625+00:00",
        "meta_object_name": "FENGYUN 1C DEB",
        "meta_object_id": "1999-025BEV",
        "meta_epoch": "2025-12-12T21:48:30.367584",
        "meta_mean_motion": 14.03033745,
        "meta_eccentricity": 0.00534524,
        "meta_inclination": 98.8183,
        "meta_ra_of_asc_node": 17.4591,
        "meta_arg_of_pericenter": 135.0078,
        "meta_mean_anomaly": 225.5438,
        "meta_ephemeris_type": 0,
        "meta_classification_type": "U",
        "meta_norad_cat_id": 31051,
        "meta_element_set_no": 999,
        "meta_rev_at_epoch": 63821,
        "meta_bstar": 0.00016986752,
        "meta_mean_motion_dot": 2.25e-06,
        "meta_mean_motion_ddot": 0,
        "tle_line1": "1 31051U 99025BEV 25346.90868481  .00000225  00000+0  16987-3 0  9991",
        "tle_line2": "2 31051  98.8183  17.4591 0053452 135.0078 225.5438 14.03033745638218"
      },
      "geometry": {
        "type": "Point",
        "coordinates": [
          55.79015203405108,
          -70.92231608586
        ]
      }
    },
    {
      "type": "Feature",
      "properties": {
        "norad_id": 31053,
        "name": "FENGYUN 1C DEB",
        "group": "fengyun-1c-debris",
        "lat": 47.057443222372456,
        "lon": 110.96097201361165,
        "alt_km": 753.8092203171282,
        "timestamp": "2025-12-24T22:42:22.311635+00:00",
        "meta_object_name": "FENGYUN 1C DEB",
        "meta_object_id": "1999-025BEX",
        "meta_epoch": "2025-12-22T02:25:18.690528",
        "meta_mean_motion": 13.75902052,
        "meta_eccentricity": 0.03088253,
        "meta_inclination": 98.7943,
        "meta_ra_of_asc_node": 117.9046,
        "meta_arg_of_pericenter": 69.9977,
        "meta_mean_anomaly": 293.4146,
        "meta_ephemeris_type": 0,
        "meta_classification_type": "U",
        "meta_norad_cat_id": 31053,
        "meta_element_set_no": 999,
        "meta_rev_at_epoch": 93605,
        "meta_bstar": 0.0012358635,
        "meta_mean_motion_dot": 1.661e-05,
        "meta_mean_motion_ddot": 0,
        "tle_line1": "1 31053U 99025BEX 25356.10091077  .00001661  00000+0  12359-2 0  9998",
        "tle_line2": "2 31053  98.7943 117.9046 0308825  69.9977 293.4146 13.75902052936051"
      },
      "geometry": {
        "type": "Point",
        "coordinates": [
          110.96097201361165,
          47.057443222372456
        ]
      }
    },
    {
      "type": "Feature",
      "properties": {
        "norad_id": 31054,
        "name": "FENGYUN 1C DEB",
        "group": "fengyun-1c-debris",
        "lat": -16.973758325223454,
        "lon": 14.27767450117512,
        "alt_km": 858.8820287084227,
        "timestamp": "2025-12-24T22:42:22.311654+00:00",
        "meta_object_name": "FENGYUN 1C DEB",
        "meta_object_id": "1999-025BEY",
        "meta_epoch": "2025-12-24T00:46:30.768384",
        "meta_mean_motion": 14.12176317,
        "meta_eccentricity": 0.00108202,
        "meta_inclination": 98.6896,
        "meta_ra_of_asc_node": 10.7165,
        "meta_arg_of_pericenter": 91.3184,
        "meta_mean_anomaly": 288.7757,
        "meta_ephemeris_type": 0,
        "meta_classification_type": "U",
        "meta_norad_cat_id": 31054,
        "meta_element_set_no": 999,
        "meta_rev_at_epoch": 96923,
        "meta_bstar": 0.00015251591,
        "meta_mean_motion_dot": 2.38e-06,
        "meta_mean_motion_ddot": 0,
        "tle_line1": "1 31054U 99025BEY 25358.03230056  .00000238  00000+0  15252-3 0  9990",
        "tle_line2": "2 31054  98.6896  10.7165 0010820  91.3184 288.7757 14.12176317969234"
      },
      "geometry": {
        "type": "Point",
        "coordinates": [
          14.27767450117512,
          -16.973758325223454
        ]
      }
    },
    {
      "type": "Feature",
      "properties": {
        "norad_id": 31055,
        "name": "FENGYUN 1C DEB",
        "group": "fengyun-1c-debris",
        "lat": 27.130420939268298,
        "lon": 25.309550735253953,
        "alt_km": 872.2817321216271,
        "timestamp": "2025-12-24T22:42:22.311676+00:00",
        "meta_object_name": "FENGYUN 1C DEB",
        "meta_object_id": "1999-025BEZ",
        "meta_epoch": "2025-12-24T00:35:10.853088",
        "meta_mean_motion": 14.10390249,
        "meta_eccentricity": 0.0024258,
        "meta_inclination": 98.7586,
        "meta_ra_of_asc_node": 28.9426,
        "meta_arg_of_pericenter": 238.867,
        "meta_mean_anomaly": 151.5404,
        "meta_ephemeris_type": 0,
        "meta_classification_type": "U",
        "meta_norad_cat_id": 31055,
        "meta_element_set_no": 999,
        "meta_rev_at_epoch": 96281,
        "meta_bstar": 0.00036146031,
        "meta_mean_motion_dot": 6.01e-06,
        "meta_mean_motion_ddot": 0,
        "tle_line1": "1 31055U 99025BEZ 25358.02443117  .00000601  00000+0  36146-3 0  9993",
        "tle_line2": "2 31055  98.7586  28.9426 0024258 238.8670 151.5404 14.10390249962814"
      },
      "geometry": {
        "type": "Point",
        "coordinates": [
          25.309550735253953,
          27.130420939268298
        ]
      }
    },
    {
      "type": "Feature",
      "properties": {
        "norad_id": 31056,
        "name": "FENGYUN 1C DEB",
        "group": "fengyun-1c-debris",
        "lat": 17.00441112319178,
        "lon": 163.8186703204962,
        "alt_km": 859.884693747943,
        "timestamp": "2025-12-24T22:42:22.311703+00:00",
        "meta_object_name": "FENGYUN 1C DEB",
        "meta_object_id": "1999-025BFA",
        "meta_epoch": "2025-12-24T05:13:19.179840",
        "meta_mean_motion": 14.14321482,
        "meta_eccentricity": 0.00250014,
        "meta_inclination": 98.6699,
        "meta_ra_of_asc_node": 340.4372,
        "meta_arg_of_pericenter": 309.9129,
        "meta_mean_anomaly": 105.7726,
        "meta_ephemeris_type": 0,
        "meta_classification_type": "U",
        "meta_norad_cat_id": 31056,
        "meta_element_set_no": 999,
        "meta_rev_at_epoch": 96980,
        "meta_bstar": 0.00034800003,
        "meta_mean_motion_dot": 6.24e-06,
        "meta_mean_motion_ddot": 0,
        "tle_line1": "1 31056U 99025BFA 25358.21758310  .00000624  00000+0  34800-3 0  9999",
        "tle_line2": "2 31056  98.6699 340.4372 0025001 309.9129 105.7726 14.14321482969808"
      },
      "geometry": {
        "type": "Point",
        "coordinates": [
          163.8186703204962,
          17.00441112319178
        ]
      }
    },
    {
      "type": "Feature",
      "properties": {
        "norad_id": 31057,
        "name": "FENGYUN 1C DEB",
        "group": "fengyun-1c-debris",
        "lat": 32.05700811928004,
        "lon": 34.34939985478564,
        "alt_km": 725.18485036123,
        "timestamp": "2025-12-24T22:42:22.311724+00:00",
        "meta_object_name": "FENGYUN 1C DEB",
        "meta_object_id": "1999-025BFB",
        "meta_epoch": "2025-12-18T22:05:50.245152",
        "meta_mean_motion": 14.79471087,
        "meta_eccentricity": 0.0137517,
        "meta_inclination": 99.2565,
        "meta_ra_of_asc_node": 33.2779,
        "meta_arg_of_pericenter": 232.6273,
        "meta_mean_anomaly": 126.2347,
        "meta_ephemeris_type": 0,
        "meta_classification_type": "U",
        "meta_norad_cat_id": 31057,
        "meta_element_set_no": 999,
        "meta_rev_at_epoch": 62044,
        "meta_bstar": 0.00071207,
        "meta_mean_motion_dot": 6.17e-05,
        "meta_mean_motion_ddot": 0,
        "tle_line1": "1 31057U 99025BFB 25352.92072043  .00006170  00000+0  71207-3 0  9998",
        "tle_line2": "2 31057  99.2565  33.2779 0137517 232.6273 126.2347 14.79471087620443"
      },
      "geometry": {
        "type": "Point",
        "coordinates": [
          34.34939985478564,
          32.05700811928004
        ]
      }
    }
  ]
}